STARLETTE               
1 07646U 75010A   09121.90223118 -.00000162  00000-0 -16726-4 0  9329
2 07646  49.8295 313.5761 0205675 279.8472  77.9256 13.82271402729286
LAGEOS 1                
1 08820U 76039A   09121.88269301 -.00000014  00000-0  10000-3 0  7755
2 08820 109.8158 196.5545 0044764 201.7544 158.1243  6.38664696514081
EGP                     
1 16908U 86061A   09122.82871457 -.00000083  00000-0  10000-3 0  8963
2 16908  50.0117 298.4661 0011554 102.3577 257.8551 12.44462033701951
LAGEOS 2                
1 22195U 92070B   09121.81404918 -.00000009  00000-0  10000-3 0  9944
2 22195  52.6560 260.1824 0136994 332.3838  26.9499  6.47294082390665
STELLA                  
1 22824U 93061B   09121.97566305 -.00000101  00000-0 -24022-4 0  2633
2 22824  98.4738  71.7008 0007403  78.8693 281.3340 14.27283176812594
WESTPAC                 
1 25398U 98043E   09121.98373354 -.00000033  00000-0  34406-5 0  5148
2 25398  98.3309 145.7025 0001487  39.8522 320.2776 14.22675073561448
GRACE 1                 
1 27391U 02012A   09122.08103922  .00000241  00000-0  62269-5 0  1838
2 27391  89.0190   9.1412 0013562 292.0975  67.8849 15.34167594398242
GRACE 2                 
1 27392U 02012B   09122.47203309  .00000304  00000-0  81238-5 0  1840
2 27392  89.0198   9.1037 0014370 292.1191  67.8565 15.34166919398305
